{"type": "FeatureCollection", "features": [ {"type": "Feature", "properties": {"norad_id": 30689, "name": "FENGYUN 1C DEB", "group": "fengyun-1c-debris", "lat": 56.90801784464922, "lon": -41.673763477092706, "alt_km": 793.6057728767373, "timestamp": "2025-12-11T15:53:39.820516+00:00", "meta": {"OBJECT_NAME": "FENGYUN 1C DEB", "OBJECT_ID": "1999-025AQX", "EPOCH": "2025-12-10T11:25:33.921984", "MEAN_MOTION": 14.11761894, "ECCENTRICITY": 0.0111718, "INCLINATION": 98.7079, "RA_OF_ASC_NODE": 330.7764, "ARG_OF_PERICENTER": 109.6912, "MEAN_ANOMALY": 44.0621, "EPHEMERIS_TYPE": 0, "CLASSIFICATION_TYPE": "U", "NORAD_CAT_ID": 30689, "ELEMENT_SET_NO": 999, "REV_AT_EPOCH": 96858, "BSTAR": 0.00051628872, "MEAN_MOTION_DOT": 9.56e-06, "MEAN_MOTION_DDOT": 0}, "tle": {"line1": "1 30689U 99025AQX 25344.47608706  .00000956  00000+0  51629-3 0  9992", "line2": "2 30689  98.7079 330.7764 0111718 109.6912  44.0621 14.11761894968580"}}, "geometry": {"type": "Point", "coordinates": [-41.673763477092706, 56.90801784464922]}}, {"type": "Feature", "properties": {"norad_id": 30690, "name": "FENGYUN 1C DEB", "group": "fengyun-1c-debris", "lat": 35.791847473878626, "lon": 102.73341424486017, "alt_km": 850.0105001721249, "timestamp": "2025-12-11T15:53:39.820526+00:00", "meta": {"OBJECT_NAME": "FENGYUN 1C DEB", "OBJECT_ID": "1999-025AQY", "EPOCH": "2025-12-10T08:58:49.407744", "MEAN_MOTION": 14.0231016, "ECCENTRICITY": 0.01049308, "INCLINATION": 99.159, "RA_OF_ASC_NODE": 274.7593, "ARG_OF_PERICENTER": 82.4429, "MEAN_ANOMALY": 40.9422, "EPHEMERIS_TYPE": 0, "CLASSIFICATION_TYPE": "U", "NORAD_CAT_ID": 30690, "ELEMENT_SET_NO": 999, "REV_AT_EPOCH": 95674, "BSTAR": 0.0018096438, "MEAN_MOTION_DOT": 2.869e-05, "MEAN_MOTION_DDOT": 0}, "tle": {"line1": "1 30690U 99025AQY 25344.37418296  .00002869  00000+0  18096-2 0  9991", "line2": "2 30690  99.1590 274.7593 0104930  82.4429  40.9422 14.02310160956746"}}, "geometry": {"type": "Point", "coordinates": [102.73341424486017, 35.791847473878626]}}, {"type": "Feature", "properties": {"norad_id": 30691, "name": "FENGYUN 1C DEB", "group": "fengyun-1c-debris", "lat": -7.794737000848371, "lon": 175.92839713049767, "alt_km": 866.0940822026478, "timestamp": "2025-12-11T15:53:39.820536+00:00", "meta": {"OBJECT_NAME": "FENGYUN 1C DEB", "OBJECT_ID": "1999-025AQZ", "EPOCH": "2025-12-07T00:44:07.899072", "MEAN_MOTION": 13.89408604, "ECCENTRICITY": 0.0139223, "INCLINATION": 98.743, "RA_OF_ASC_NODE": 352.7852, "ARG_OF_PERICENTER": 248.8184, "MEAN_ANOMALY": 185.8655, "EPHEMERIS_TYPE": 0, "CLASSIFICATION_TYPE": "U", "NORAD_CAT_ID": 30691, "ELEMENT_SET_NO": 999, "REV_AT_EPOCH": 95037, "BSTAR": 0.0017684933, "MEAN_MOTION_DOT": 2.291e-05, "MEAN_MOTION_DDOT": 0}, "tle": {"line1": "1 30691U 99025AQZ 25341.03064698  .00002291  00000+0  17685-2 0  9997", "line2": "2 30691  98.7430 352.7852 0139223 248.8184 185.8655 13.89408604950374"}}, "geometry": {"type": "Point", "coordinates": [175.92839713049767, -7.794737000848371]}}, {"type": "Feature", "properties": {"norad_id": 30693, "name": "FENGYUN 1C DEB", "group": "fengyun-1c-debris", "lat": -31.252500461052694, "lon": 145.49830098625299, "alt_km": 838.1808690035614, "timestamp": "2025-12-11T15:53:39.820547+00:00", "meta": {"OBJECT_NAME": "FENGYUN 1C DEB", "OBJECT_ID": "1999-025ARB", "EPOCH": "2025-12-11T04:42:10.741824", "MEAN_MOTION": 14.13283672, "ECCENTRICITY": 0.00292076, "INCLINATION": 98.6862, "RA_OF_ASC_NODE": 330.3689, "ARG_OF_PERICENTER": 171.8156, "MEAN_ANOMALY": 188.3499, "EPHEMERIS_TYPE": 0, "CLASSIFICATION_TYPE": "U", "NORAD_CAT_ID": 30693, "ELEMENT_SET_NO": 999, "REV_AT_EPOCH": 96913, "BSTAR": 0.00045133543, "MEAN_MOTION_DOT": 8.07e-06, "MEAN_MOTION_DDOT": 0}, "tle": {"line1": "1 30693U 99025ARB 25345.19595766  .00000807  00000+0  45134-3 0  9997", "line2": "2 30693  98.6862 330.3689 0029207 171.8156 188.3499 14.13283672969130"}}, "geometry": {"type": "Point", "coordinates": [145.49830098625299, -31.252500461052694]}}, {"type": "Feature", "properties": {"norad_id": 30694, "name": "FENGYUN 1C DEB", "group": "fengyun-1c-debris", "lat": -0.141945150257467, "lon": 131.69024404637676, "alt_km": 654.622923962479, "timestamp": "2025-12-11T15:53:39.820558+00:00", "meta": {"OBJECT_NAME": "FENGYUN 1C DEB", "OBJECT_ID": "1999-025ARC", "EPOCH": "2025-12-09T21:04:09.548256", "MEAN_MOTION": 14.86326797, "ECCENTRICITY": 0.01309753, "INCLINATION": 99.0475, "RA_OF_ASC_NODE": 309.6838, "ARG_OF_PERICENTER": 304.0403, "MEAN_ANOMALY": 54.8428, "EPHEMERIS_TYPE": 0, "CLASSIFICATION_TYPE": "U", "NORAD_CAT_ID": 30694, "ELEMENT_SET_NO": 999, "REV_AT_EPOCH": 53, "BSTAR": 0.0026941707, "MEAN_MOTION_DOT": 0.00027766, "MEAN_MOTION_DDOT": 0}, "tle": {"line1": "1 30694U 99025ARC 25343.87788829  .00027766  00000+0  26942-2 0  9993", "line2": "2 30694  99.0475 309.6838 0130975 304.0403  54.8428 14.86326797   536"}}, "geometry": {"type": "Point", "coordinates": [131.69024404637676, -0.141945150257467]}}, {"type": "Feature", "properties": {"norad_id": 30696, "name": "FENGYUN 1C DEB", "group": "fengyun-1c-debris", "lat": -74.07173086648227, "lon": 65.82948706426318, "alt_km": 807.9190135393965, "timestamp": "2025-12-11T15:53:39.820568+00:00", "meta": {"OBJECT_NAME": "FENGYUN 1C DEB", "OBJECT_ID": "1999-025ARE", "EPOCH": "2025-12-10T22:32:47.253120", "MEAN_MOTION": 14.44743423, "ECCENTRICITY": 0.0089932, "INCLINATION": 98.389, "RA_OF_ASC_NODE": 33.98, "ARG_OF_PERICENTER": 131.1661, "MEAN_ANOMALY": 354.6885, "EPHEMERIS_TYPE": 0, "CLASSIFICATION_TYPE": "U", "NORAD_CAT_ID": 30696, "ELEMENT_SET_NO": 999, "REV_AT_EPOCH": 98278, "BSTAR": 0.0012278, "MEAN_MOTION_DOT": 4.434e-05, "MEAN_MOTION_DDOT": 0}, "tle": {"line1": "1 30696U 99025ARE 25344.93943580  .00004434  00000+0  12278-2 0  9994", "line2": "2 30696  98.3890  33.9800 0089932 131.1661 354.6885 14.44743423982785"}}, "geometry": {"type": "Point", "coordinates": [65.82948706426318, -74.07173086648227]}}, {"type": "Feature", "properties": {"norad_id": 30697, "name": "FENGYUN 1C DEB", "group": "fengyun-1c-debris", "lat": 6.320783421153039, "lon": -136.49596803643817, "alt_km": 787.8622980779792, "timestamp": "2025-12-11T15:53:39.820578+00:00", "meta": {"OBJECT_NAME": "FENGYUN 1C DEB", "OBJECT_ID": "1999-025ARF", "EPOCH": "2025-12-11T03:26:53.665152", "MEAN_MOTION": 14.13504992, "ECCENTRICITY": 0.00880273, "INCLINATION": 98.907, "RA_OF_ASC_NODE": 41.9924, "ARG_OF_PERICENTER": 189.6679, "MEAN_ANOMALY": 226.6326, "EPHEMERIS_TYPE": 0, "CLASSIFICATION_TYPE": "U", "NORAD_CAT_ID": 30697, "ELEMENT_SET_NO": 999, "REV_AT_EPOCH": 96238, "BSTAR": 0.0022198025, "MEAN_MOTION_DOT": 4.293e-05, "MEAN_MOTION_DDOT": 0}, "tle": {"line1": "1 30697U 99025ARF 25345.14367668  .00004293  00000+0  22198-2 0  9991", "line2": "2 30697  98.9070  41.9924 0088027 189.6679 226.6326 14.13504992962383"}}, "geometry": {"type": "Point", "coordinates": [-136.49596803643817, 6.320783421153039]}}, {"type": "Feature", "properties": {"norad_id": 30699, "name": "FENGYUN 1C DEB", "group": "fengyun-1c-debris", "lat": 6.559402748586939, "lon": -73.88882360675379, "alt_km": 737.4055994598384, "timestamp": "2025-12-11T15:53:39.820588+00:00", "meta": {"OBJECT_NAME": "FENGYUN 1C DEB", "OBJECT_ID": "1999-025ARH", "EPOCH": "2025-12-11T06:47:51.427104", "MEAN_MOTION": 14.46901903, "ECCENTRICITY": 0.00041492, "INCLINATION": 99.3104, "RA_OF_ASC_NODE": 104.614, "ARG_OF_PERICENTER": 257.1116, "MEAN_ANOMALY": 102.961, "EPHEMERIS_TYPE": 0, "CLASSIFICATION_TYPE": "U", "NORAD_CAT_ID": 30699, "ELEMENT_SET_NO": 999, "REV_AT_EPOCH": 97592, "BSTAR": 0.0047272228, "MEAN_MOTION_DOT": 0.00017152, "MEAN_MOTION_DDOT": 0}, "tle": {"line1": "1 30699U 99025ARH 25345.28323411  .00017152  00000+0  47272-2 0  9994", "line2": "2 30699  99.3104 104.6140 0004149 257.1116 102.9610 14.46901903975920"}}, "geometry": {"type": "Point", "coordinates": [-73.88882360675379, 6.559402748586939]}}, {"type": "Feature", "properties": {"norad_id": 30700, "name": "FENGYUN 1C DEB", "group": "fengyun-1c-debris", "lat": -4.835218738987263, "lon": 14.736325001983188, "alt_km": 870.8187136259276, "timestamp": "2025-12-11T15:53:39.820598+00:00", "meta": {"OBJECT_NAME": "FENGYUN 1C DEB", "OBJECT_ID": "1999-025ARJ", "EPOCH": "2025-12-11T07:29:04.507008", "MEAN_MOTION": 14.23792343, "ECCENTRICITY": 0.008706, "INCLINATION": 98.5418, "RA_OF_ASC_NODE": 13.6675, "ARG_OF_PERICENTER": 147.4259, "MEAN_ANOMALY": 213.2333, "EPHEMERIS_TYPE": 0, "CLASSIFICATION_TYPE": "U", "NORAD_CAT_ID": 30700, "ELEMENT_SET_NO": 999, "REV_AT_EPOCH": 97549, "BSTAR": 0.00027707585, "MEAN_MOTION_DOT": 6.17e-06, "MEAN_MOTION_DDOT": 0}, "tle": {"line1": "1 30700U 99025ARJ 25345.31185772  .00000617  00000+0  27708-3 0  9998", "line2": "2 30700  98.5418  13.6675 0087060 147.4259 213.2333 14.23792343975497"}}, "geometry": {"type": "Point", "coordinates": [14.736325001983188, -4.835218738987263]}}, {"type": "Feature", "properties": {"norad_id": 30701, "name": "FENGYUN 1C DEB", "group": "fengyun-1c-debris", "lat": 47.65479273978583, "lon": 17.29413336918173, "alt_km": 827.622553977546, "timestamp": "2025-12-11T15:53:39.820608+00:00", "meta": {"OBJECT_NAME": "FENGYUN 1C DEB", "OBJECT_ID": "1999-025ARK", "EPOCH": "2025-12-11T02:12:45.057024", "MEAN_MOTION": 14.13934327, "ECCENTRICITY": 0.00357037, "INCLINATION": 98.7186, "RA_OF_ASC_NODE": 26.4314, "ARG_OF_PERICENTER": 107.3142, "MEAN_ANOMALY": 281.3309, "EPHEMERIS_TYPE": 0, "CLASSIFICATION_TYPE": "U", "NORAD_CAT_ID": 30701, "ELEMENT_SET_NO": 999, "REV_AT_EPOCH": 97096, "BSTAR": 1.9568194e-05, "MEAN_MOTION_DOT": -5e-08, "MEAN_MOTION_DDOT": 0}, "tle": {"line1": "1 30701U 99025ARK 25345.09218816 -.00000005  00000+0  19568-4 0  9998", "line2": "2 30701  98.7186  26.4314 0035703 107.3142 281.3309 14.13934327970962"}}, "geometry": {"type": "Point", "coordinates": [17.29413336918173, 47.65479273978583]}}]}